NORAD_CAT_ID,OBJECT_NAME,OBJECT_TYPE,EPOCH,MEAN_MOTION,ECCENTRICITY,INCLINATION,RA_OF_ASC_NODE,ARG_OF_PERICENTER,MEAN_ANOMALY,BSTAR,MEAN_MOTION_DOT,MEAN_MOTION_DDOT,TLE_LINE0,TLE_LINE1,TLE_LINE2,SEMIMAJOR_AXIS,PERIOD,APOGEE,PERIGEE,DECAYED
51788.0,STARLINK-3641,PAYLOAD,2023-09-01 00:59:17,15.08840098,0.0001146,53.2172,162.0761,82.8532,277.2591,0.00012781,1.747e-05,0.0,0 STARLINK-3641,1 51788U 22017W   23244.04117213  .00001747  00000-0  12781-3 0  9996,2 51788  53.2172 162.0761 0001146  82.8532 277.2591 15.08840098 84934,6917.88,95.438,540.538,538.952,0.0
51788.0,STARLINK-3641,PAYLOAD,2023-09-01 12:06:58,15.08844872,0.0001084,53.2165,159.9939,80.9077,279.2038,0.00010094,1.319e-05,0.0,0 STARLINK-3641,1 51788U 22017W   23244.50484946  .00001319  00000-0  10094-3 0  9997,2 51788  53.2165 159.9939 0001084  80.9077 279.2038 15.08844872 85003,6917.865,95.437,540.48,538.981,0.0
51788.0,STARLINK-3641,PAYLOAD,2023-09-01 23:14:41,15.0884006,0.0001062,53.217,157.9129,77.2688,282.8423,7.559e-05,9.15e-06,0.0,0 STARLINK-3641,1 51788U 22017W   23244.96853293  .00000915  00000-0  75590-4 0  9996,2 51788  53.2170 157.9129 0001062  77.2688 282.8423 15.08840060 85071,6917.88,95.438,540.48,539.011,0.0
51788.0,STARLINK-3641,PAYLOAD,2023-09-02 18:19:18,15.08840839,0.0001091,53.2169,154.3438,82.8316,277.28,4.2794e-05,3.93e-06,0.0,0 STARLINK-3641,1 51788U 22017W   23245.76341183  .00000393  00000-0  42794-4 0  9995,2 51788  53.2169 154.3438 0001091  82.8316 277.2800 15.08840839 85199,6917.878,95.438,540.498,538.988,0.0
51788.0,STARLINK-3641,PAYLOAD,2023-09-03 03:51:37,15.08846347,0.0001257,53.2162,152.5565,95.5907,264.5229,6.5157e-05,7.49e-06,0.0,0 STARLINK-3641,1 51788U 22017W   23246.16084707  .00000749  00000-0  65157-4 0  9999,2 51788  53.2162 152.5565 0001257  95.5907 264.5229 15.08846347 85255,6917.861,95.437,540.596,538.856,0.0
51788.0,STARLINK-3641,PAYLOAD,2023-09-04 00:31:38,15.08835237,0.0001159,53.2166,148.6923,83.3581,276.7543,-2.3981e-05,-6.69e-06,0.0,0 STARLINK-3641,1 51788U 22017W   23247.02197862 -.00000669  00000-0 -23981-4 0  9994,2 51788  53.2166 148.6923 0001159  83.3581 276.7543 15.08835237 85381,6917.895,95.438,540.562,538.958,0.0
51788.0,STARLINK-3641,PAYLOAD,2023-09-04 10:03:58,15.0883227,0.0001208,53.217,146.9098,89.9349,270.1781,3.2812e-06,-2.36e-06,0.0,0 STARLINK-3641,1 51788U 22017W   23247.41942176 -.00000236  00000-0  32812-5 0  9996,2 51788  53.2170 146.9098 0001208  89.9349 270.1781 15.08832270 85442,6917.904,95.438,540.605,538.933,0.0
51788.0,STARLINK-3641,PAYLOAD,2023-09-05 03:33:12,15.08840208,0.0001242,53.2171,143.6375,86.0967,274.0167,4.9922e-05,5.07e-06,0.0,0 STARLINK-3641,1 51788U 22017W   23248.14805759  .00000507  00000-0  49922-4 0  9991,2 51788  53.2171 143.6375 0001242  86.0967 274.0167 15.08840208 85550,6917.88,95.438,540.604,538.886,0.0
51788.0,STARLINK-3641,PAYLOAD,2023-09-06 01:48:35,15.08843119,0.000129,53.2175,139.4747,80.1961,279.9176,0.0001397,1.936e-05,0.0,0 STARLINK-3641,1 51788U 22017W   23249.07541411  .00001936  00000-0  13970-3 0  9996,2 51788  53.2175 139.4747 0001290  80.1961 279.9176 15.08843119 85695,6917.871,95.437,540.628,538.843,0.0
51788.0,STARLINK-3641,PAYLOAD,2023-09-07 01:39:22,15.08850385,0.0001281,53.2177,135.0138,84.8219,275.2919,0.00011291,1.51e-05,0.0,0 STARLINK-3641,1 51788U 22017W   23250.06900753  .00001510  00000-0  11291-3 0  9997,2 51788  53.2177 135.0138 0001281  84.8219 275.2919 15.08850385 85844,6917.849,95.437,540.6,538.827,0.0
51788.0,STARLINK-3641,PAYLOAD,2023-09-07 15:57:51,15.08841987,0.0001308,53.2172,132.3382,87.4055,272.7087,5.0228e-05,5.12e-06,0.0,0 STARLINK-3641,1 51788U 22017W   23250.66517496  .00000512  00000-0  50228-4 0  9996,2 51788  53.2172 132.3382 0001308  87.4055 272.7087 15.08841987 85933,6917.874,95.437,540.644,538.834,0.0
51788.0,STARLINK-3641,PAYLOAD,2023-09-08 01:30:10,15.088412,0.0001392,53.2174,130.5522,93.9693,266.1458,-1.4381e-05,-5.17e-06,0.0,0 STARLINK-3641,1 51788U 22017W   23251.06261739 -.00000517  00000-0 -14381-4 0  9994,2 51788  53.2174 130.5522 0001392  93.9693 266.1458 15.08841200 85997,6917.877,95.437,540.705,538.779,0.0
51788.0,STARLINK-3641,PAYLOAD,2023-09-08 22:10:10,15.08831524,0.0001257,53.2168,126.687,102.3752,257.7381,0.0001172,1.577e-05,0.0,0 STARLINK-3641,1 51788U 22017W   23251.92373777  .00001577  00000-0  11720-3 0  9993,2 51788  53.2168 126.6870 0001257 102.3752 257.7381 15.08831524 86128,6917.906,95.438,540.641,538.902,0.0
51788.0,STARLINK-3641,PAYLOAD,2023-09-09 01:20:57,15.08832813,0.0001115,53.2175,126.0899,104.9316,255.18,0.00015437,2.169e-05,0.0,0 STARLINK-3641,1 51788U 22017W   23252.05621625  .00002169  00000-0  15437-3 0  9993,2 51788  53.2175 126.0899 0001115 104.9316 255.1800 15.08832813 86140,6917.902,95.438,540.539,538.996,0.0
51788.0,STARLINK-3641,PAYLOAD,2023-09-09 09:17:52,15.08833126,0.0001168,53.2173,124.6034,106.5199,253.5921,0.00013929,1.929e-05,0.0,0 STARLINK-3641,1 51788U 22017W   23252.38741819  .00001929  00000-0  13929-3 0  9994,2 51788  53.2173 124.6034 0001168 106.5199 253.5921 15.08833126 86197,6917.901,95.438,540.574,538.958,0.0
51788.0,STARLINK-3641,PAYLOAD,2023-09-09 22:00:58,15.08838744,0.0001335,53.2178,122.2251,102.8974,257.2167,0.00012698,1.733e-05,0.0,0 STARLINK-3641,1 51788U 22017W   23252.91733887  .00001733  00000-0  12698-3 0  9994,2 51788  53.2178 122.2251 0001335 102.8974 257.2167 15.08838744 86276,6917.884,95.438,540.673,538.826,0.0
51788.0,STARLINK-3641,PAYLOAD,2023-09-10 18:40:59,15.08840209,0.0001403,53.2176,118.3592,95.9671,264.1481,6.0874e-05,6.81e-06,0.0,0 STARLINK-3641,1 51788U 22017W   23253.77846197  .00000681  00000-0  60874-4 0  9999,2 51788  53.2176 118.3592 0001403  95.9671 264.1481 15.08840209 86400,6917.88,95.438,540.715,538.774,0.0
51788.0,STARLINK-3641,PAYLOAD,2023-09-11 07:24:04,15.08840426,0.0001364,53.2179,115.9806,95.0853,265.0295,5.0737e-05,5.2e-06,0.0,0 STARLINK-3641,1 51788U 22017W   23254.30838252  .00000520  00000-0  50737-4 0  9991,2 51788  53.2179 115.9806 0001364  95.0853 265.0295 15.08840426 86485,6917.879,95.438,540.688,538.8,0.0
51788.0,STARLINK-3641,PAYLOAD,2023-09-11 23:17:55,15.08843574,0.0001357,53.2174,113.0097,93.5587,266.556,6.8116e-05,7.96e-06,0.0,0 STARLINK-3641,1 51788U 22017W   23254.97078158  .00000796  00000-0  68116-4 0  9990,2 51788  53.2174 113.0097 0001357  93.5587 266.5560 15.08843574 86589,6917.869,95.437,540.673,538.796,0.0
51788.0,STARLINK-3641,PAYLOAD,2023-09-12 13:36:24,15.08833515,0.0001395,53.2173,110.3337,96.5938,263.5213,1.4708e-05,-5.4e-07,0.0,0 STARLINK-3641,1 51788U 22017W   23255.56695068 -.00000054  00000-0  14708-4 0  9997,2 51788  53.2173 110.3337 0001395  96.5938 263.5213 15.08833515 86676,6917.9,95.438,540.73,538.8,0.0
51788.0,STARLINK-3641,PAYLOAD,2023-09-12 18:22:34,15.08832629,0.0001337,53.2173,109.4413,96.9043,263.2101,5.0213e-06,-2.08e-06,0.0,0 STARLINK-3641,1 51788U 22017W   23255.76567245 -.00000208  00000-0  50213-5 0  9997,2 51788  53.2173 109.4413 0001337  96.9043 263.2101 15.08832629 86709,6917.903,95.438,540.693,538.843,0.0
51788.0,STARLINK-3641,PAYLOAD,2023-09-12 21:33:20,15.08837041,0.0001489,53.2178,108.8483,101.1183,258.9977,1.9729e-05,2.6e-07,0.0,0 STARLINK-3641,1 51788U 22017W   23255.89814967  .00000026  00000-0  19729-4 0  9990,2 51788  53.2178 108.8483 0001489 101.1183 258.9977 15.08837041 86723,6917.889,95.438,540.785,538.724,0.0
51788.0,STARLINK-3641,PAYLOAD,2023-09-12 23:08:42,15.08842459,0.0001346,53.2179,108.5476,90.2009,269.9137,8.1285e-05,1.006e-05,0.0,0 STARLINK-3641,1 51788U 22017W   23255.96438527  .00001006  00000-0  81285-4 0  9997,2 51788  53.2179 108.5476 0001346  90.2009 269.9137 15.08842459 86730,6917.873,95.437,540.669,538.807,0.0
51788.0,STARLINK-3641,PAYLOAD,2023-09-13 13:27:10,15.08844814,0.0001249,53.2175,105.8721,97.1879,262.9255,0.00014428,2.009e-05,0.0,0 STARLINK-3641,1 51788U 22017W   23256.56054150  .00002009  00000-0  14428-3 0  9998,2 51788  53.2175 105.8721 0001249  97.1879 262.9255 15.08844814 86823,6917.866,95.437,540.595,538.867,0.0
51788.0,STARLINK-3641,PAYLOAD,2023-09-13 21:24:06,15.08851621,0.0001386,53.2168,104.3848,97.11,263.005,0.00018231,2.616e-05,0.0,0 STARLINK-3641,1 51788U 22017W   23256.89173898  .00002616  00000-0  18231-3 0  9995,2 51788  53.2168 104.3848 0001386  97.1100 263.0050 15.08851621 86872,6917.845,95.437,540.669,538.751,0.0
51788.0,STARLINK-3641,PAYLOAD,2023-09-14 19:39:30,15.08838003,0.0001297,53.2168,100.221,87.7517,272.3623,-1.2898e-05,-4.93e-06,0.0,0 STARLINK-3641,1 51788U 22017W   23257.81910710 -.00000493  00000-0 -12898-4 0  9997,2 51788  53.2168 100.2210 0001297  87.7517 272.3623 15.08838003 87013,6917.886,95.438,540.649,538.854,0.0
51788.0,STARLINK-3641,PAYLOAD,2023-09-14 21:14:54,15.08838002,0.0001333,53.2169,99.9238,83.9248,276.1896,-6.922e-06,-3.98e-06,0.0,0 STARLINK-3641,1 51788U 22017W   23257.88534757 -.00000398  00000-0 -69220-5 0  9993,2 51788  53.2169  99.9238 0001333  83.9248 276.1896 15.08838002 87022,6917.886,95.438,540.674,538.829,0.0
51788.0,STARLINK-3641,PAYLOAD,2023-09-15 13:08:45,15.08840242,0.0001247,53.2171,96.9495,97.6691,262.4443,-2.6562e-05,-7.11e-06,0.0,0 STARLINK-3641,1 51788U 22017W   23258.54774697 -.00000711  00000-0 -26562-4 0  9996,2 51788  53.2171  96.9495 0001247  97.6691 262.4443 15.08840242 87121,6917.88,95.438,540.607,538.882,0.0
51788.0,STARLINK-3641,PAYLOAD,2023-09-15 22:41:03,15.08849522,0.0001302,53.2168,95.1662,100.1362,259.9777,0.00018825,2.71e-05,0.0,0 STARLINK-3641,1 51788U 22017W   23258.94518224  .00002710  00000-0  18825-3 0  9993,2 51788  53.2168  95.1662 0001302 100.1362 259.9777 15.08849522 87188,6917.851,95.437,540.617,538.816,0.0
51788.0,STARLINK-3641,PAYLOAD,2023-09-16 06:37:59,15.0885317,0.0001256,53.2168,93.6794,97.2858,262.8277,0.00021415,3.123e-05,0.0,0 STARLINK-3641,1 51788U 22017W   23259.27637984  .00003123  00000-0  21415-3 0  9993,2 51788  53.2168  93.6794 0001256  97.2858 262.8277 15.08853170 87239,6917.84,95.437,540.574,538.836,0.0
